{
    "links": {
        "self": "http://www.neowsapp.com/rest/v1/neo/3591447?api_key=iIulBulltgU6a56xZRHN4H3l9WmuAYTsLGpBGhQ2"
    },
    "id": "3591447",
    "neo_reference_id": "3591447",
    "name": "(2011 YQ1)",
    "designation": "2011 YQ1",
    "nasa_jpl_url": "http://ssd.jpl.nasa.gov/sbdb.cgi?sstr=3591447",
    "absolute_magnitude_h": 25.6,
    "estimated_diameter": {
        "kilometers": {
            "estimated_diameter_min": 0.0201629919,
            "estimated_diameter_max": 0.0450858206
        },
        "meters": {
            "estimated_diameter_min": 20.1629919443,
            "estimated_diameter_max": 45.0858206172
        },
        "miles": {
            "estimated_diameter_min": 0.0125286985,
            "estimated_diameter_max": 0.0280150214
        },
        "feet": {
            "estimated_diameter_min": 66.1515504905,
            "estimated_diameter_max": 147.9193637137
        }
    },
    "is_potentially_hazardous_asteroid": false,
    "close_approach_data": [
        {
            "close_approach_date": "2011-12-14",
            "close_approach_date_full": "2011-Dec-14 14:20",
            "epoch_date_close_approach": 1323872400000,
            "relative_velocity": {
                "kilometers_per_second": "11.7851806785",
                "kilometers_per_hour": "42426.6504425968",
                "miles_per_hour": "26362.2706597346"
            },
            "miss_distance": {
                "astronomical": "0.0026114272",
                "lunar": "1.0158451808",
                "kilometers": "390663.946780064",
                "miles": "242747.3201863232"
            },
            "orbiting_body": "Earth"
        },
        {
            "close_approach_date": "2011-12-14",
            "close_approach_date_full": "2011-Dec-14 21:54",
            "epoch_date_close_approach": 1323899640000,
            "relative_velocity": {
                "kilometers_per_second": "12.2857061592",
                "kilometers_per_hour": "44228.5421732568",
                "miles_per_hour": "27481.8961075995"
            },
            "miss_distance": {
                "astronomical": "0.0031856939",
                "lunar": "1.2392349271",
                "kilometers": "476573.021911993",
                "miles": "296128.7441437834"
            },
            "orbiting_body": "Moon"
        },
        {
            "close_approach_date": "2020-01-11",
            "close_approach_date_full": "2020-Jan-11 11:45",
            "epoch_date_close_approach": 1578743100000,
            "relative_velocity": {
                "kilometers_per_second": "24.2238096949",
                "kilometers_per_hour": "87205.7149016803",
                "miles_per_hour": "54186.2399065469"
            },
            "miss_distance": {
                "astronomical": "0.4153082519",
                "lunar": "161.5549099891",
                "kilometers": "62129229.877663453",
                "miles": "38605313.2938155314"
            },
            "orbiting_body": "Earth"
        },
        {
            "close_approach_date": "2097-12-30",
            "close_approach_date_full": "2097-Dec-30 15:34",
            "epoch_date_close_approach": 4039256040000,
            "relative_velocity": {
                "kilometers_per_second": "17.4546183873",
                "kilometers_per_hour": "62836.6261943048",
                "miles_per_hour": "39044.2358705668"
            },
            "miss_distance": {
                "astronomical": "0.1897609893",
                "lunar": "73.8170248377",
                "kilometers": "28387839.808372791",
                "miles": "17639385.7077388758"
            },
            "orbiting_body": "Earth"
        }
    ],
    "orbital_data": {
        "orbit_id": "8",
        "orbit_determination_date": "2017-04-06 08:51:44",
        "first_observation_date": "2011-12-18",
        "last_observation_date": "2011-12-28",
        "data_arc_in_days": 10,
        "observations_used": 62,
        "orbit_uncertainty": "7",
        "minimum_orbit_intersection": ".00265479",
        "jupiter_tisserand_invariant": "3.710",
        "epoch_osculation": "2459000.5",
        "eccentricity": ".5481605214038098",
        "semi_major_axis": "1.933816994329038",
        "inclination": "1.720149040864265",
        "ascending_node_longitude": "266.4995369275514",
        "orbital_period": "982.2487517756739",
        "perihelion_distance": ".8737748624180843",
        "perihelion_argument": "128.0101281921723",
        "aphelion_distance": "2.993859126239992",
        "perihelion_time": "2458821.723321988903",
        "mean_anomaly": "65.52271404534551",
        "mean_motion": ".3665059378789792",
        "equinox": "J2000",
        "orbit_class": {
            "orbit_class_type": "APO",
            "orbit_class_description": "Near-Earth asteroid orbits which cross the Earth’s orbit similar to that of 1862 Apollo",
            "orbit_class_range": "a (semi-major axis) > 1.0 AU; q (perihelion) < 1.017 AU"
        }
    },
    "is_sentry_object": false
}